STARLINK-2404_new
1 18093C 21027B   21326.17446403 -.00000199  00000-0 -13310-4 0  3266
2 18093  53.0555   2.9587 0001513  58.4814  38.0587 15.06405183    15
STARLINK-2404_old
1 28093C 21027B   21325.13594706  .00000515  00000-0  34539-4 0  3256
2 28093  53.0560   7.6207 0001463  59.5042 162.0155 15.06395241    13
